
# Worst residual: 1.85 km
# MJD 60513.000000 (2024 Jul 22  0:00)
ZTF0EWD = C1A3AQ1 = 67040 obj
1 89972U 00000ABB 24204.49919926  .00000000  00000-0  00000-0 0 21822
2 89972 017.7949 222.9237 7936652 317.1575 180.4639 00.51060212    06

# Worst residual: 6.53 km
# MJD 60514.000000 (2024 Jul 23  0:00)
ZTF0EWD = C1A3AQ1 = 67040 obj
1 89972U 00000ABB 24205.49919926  .00000000  00000-0  00000-0 0 21823
2 89972 017.8063 222.8674 7936083 317.2366 004.2611 00.51058425    01

# Worst residual: 7.12 km
# MJD 60515.000000 (2024 Jul 24  0:00)
ZTF0EWD = C1A3AQ1 = 67040 obj
1 89972U 00000ABB 24206.49919926  .00000000  00000-0  00000-0 0 21824
2 89972 017.8298 222.7079 7937220 317.4279 187.9221 00.51040494    01

# Worst residual: 10.41 km
# MJD 60516.000000 (2024 Jul 25  0:00)
ZTF0EWD = C1A3AQ1 = 67040 obj
1 89972U 00000ABB 24207.49919926  .00000000  00000-0  00000-0 0 21825
2 89972 017.8658 222.6081 7938642 317.5703 011.6502 00.51055238    02

# Worst residual: 8.70 km
# MJD 60517.000000 (2024 Jul 26  0:00)
ZTF0EWD = C1A3AQ1 = 67040 obj
1 89972U 00000ABB 24208.49919926  .00000000  00000-0  00000-0 0 21826
2 89972 017.8740 222.5362 7935482 317.6954 195.3137 00.51029454    08

# Worst residual: 9.76 km
# MJD 60518.000000 (2024 Jul 27  0:00)
ZTF0EWD = C1A3AQ1 = 67040 obj
1 89972U 00000ABB 24209.49919926  .00000000  00000-0  00000-0 0 21827
2 89972 017.8878 222.4761 7934135 317.8019 018.9591 00.51051664    02

# Worst residual: 5.46 km
# MJD 60519.000000 (2024 Jul 28  0:00)
ZTF0EWD = C1A3AQ1 = 67040 obj
1 89972U 00000ABB 24210.49919926  .00000000  00000-0  00000-0 0 21829
2 89972 017.8819 222.4692 7931080 317.8430 202.7322 00.51047842    01

# Worst residual: 7.14 km
# MJD 60520.000000 (2024 Jul 29  0:00)
ZTF0EWD = C1A3AQ1 = 67040 obj
1 89972U 00000ABB 24211.49919926  .00000000  00000-0  00000-0 0 21820
2 89972 017.8740 222.4412 7927611 317.8955 026.4333 00.51054702    07

# Worst residual: 1.43 km
# MJD 60521.000000 (2024 Jul 30  0:00)
ZTF0EWD = C1A3AQ1 = 67040 obj
1 89972U 00000ABB 24212.49919926  .00000000  00000-0  00000-0 0 21821
2 89972 017.8798 222.3830 7928172 317.9700 210.2256 00.51061247    04

# Worst residual: 5.62 km
# MJD 60522.000000 (2024 Jul 31  0:00)
ZTF0EWD = C1A3AQ1 = 67040 obj
1 89972U 00000ABB 24213.49919926  .00000000  00000-0  00000-0 0 21822
2 89972 017.8819 222.3351 7925383 318.0344 033.9877 00.51063126    00

# Worst residual: 1.06 km
# MJD 60523.000000 (2024 Aug  1  0:00)
ZTF0EWD = C1A3AQ1 = 67040 obj
1 89972U 00000ABB 24214.49919926  .00000000  00000-0  00000-0 0 21823
2 89972 017.8930 222.2533 7927591 318.1364 217.7278 00.51060728    03

# Worst residual: 7.86 km
# MJD 60524.000000 (2024 Aug  2  0:00)
ZTF0EWD = C1A3AQ1 = 67040 obj
1 89972U 00000ABB 24215.49919926  .00000000  00000-0  00000-0 0 21824
2 89972 017.9016 222.1982 7925710 318.2136 041.5018 00.51064656    04

# Worst residual: 2.18 km
# MJD 60525.000000 (2024 Aug  3  0:00)
ZTF0EWD = C1A3AQ1 = 67040 obj
1 89972U 00000ABB 24216.49919926  .00000000  00000-0  00000-0 0 21825
2 89972 017.9053 222.1468 7927220 318.2923 225.2125 00.51055502    06

# Worst residual: 4.94 km
# MJD 60526.000000 (2024 Aug  4  0:00)
ZTF0EWD = C1A3AQ1 = 67040 obj
1 89972U 00000ABB 24217.49919926  .00000000  00000-0  00000-0 0 21826
2 89972 017.9136 222.0940 7926042 318.3703 048.9811 00.51057502    04

# Worst residual: 4.28 km
# MJD 60527.000000 (2024 Aug  5  0:00)
ZTF0EWD = C1A3AQ1 = 67040 obj
1 89972U 00000ABB 24218.49919926  .00000000  00000-0  00000-0 0 21827
2 89972 017.9062 222.0834 7926163 318.4078 232.7098 00.51051278    08

# Worst residual: 5.87 km
# MJD 60528.000000 (2024 Aug  6  0:00)
ZTF0EWD = C1A3AQ1 = 67040 obj
1 89972U 00000ABB 24219.49919926  .00000000  00000-0  00000-0 0 21828
2 89972 017.9126 222.0333 7925537 318.4846 056.4683 00.51046701    06

# Worst residual: 6.49 km
# MJD 60529.000000 (2024 Aug  7  0:00)
ZTF0EWD = C1A3AQ1 = 67040 obj
1 89972U 00000ABB 24220.49919926  .00000000  00000-0  00000-0 0 21820
2 89972 017.9028 222.0334 7925039 318.5031 240.2385 00.51049506    00

# Worst residual: 7.42 km
# MJD 60530.000000 (2024 Aug  8  0:00)
ZTF0EWD = C1A3AQ1 = 67040 obj
1 89972U 00000ABB 24221.49919926  .00000000  00000-0  00000-0 0 21821
2 89972 017.9110 221.9778 7924795 318.5854 063.9886 00.51039238    00

# Worst residual: 5.98 km
# MJD 60531.000000 (2024 Aug  9  0:00)
ZTF0EWD = C1A3AQ1 = 67040 obj
1 89972U 00000ABB 24222.49919926  .00000000  00000-0  00000-0 0 21822
2 89972 017.9068 221.9621 7924570 318.6136 247.7855 00.51049766    09

# Worst residual: 8.22 km
# MJD 60532.000000 (2024 Aug 10  0:00)
ZTF0EWD = C1A3AQ1 = 67040 obj
1 89972U 00000ABB 24223.49919926  .00000000  00000-0  00000-0 0 21823
2 89972 017.9179 221.9038 7924380 318.7005 071.5305 00.51038746    08

# Worst residual: 2.71 km
# MJD 60533.000000 (2024 Aug 11  0:00)
ZTF0EWD = C1A3AQ1 = 67040 obj
1 89972U 00000ABB 24224.49919926  .00000000  00000-0  00000-0 0 21824
2 89972 017.9225 221.8600 7924625 318.7569 255.3195 00.51051074    09

# Worst residual: 7.61 km
# MJD 60534.000000 (2024 Aug 12  0:00)
ZTF0EWD = C1A3AQ1 = 67040 obj
1 89972U 00000ABB 24225.49919926  .00000000  00000-0  00000-0 0 21825
2 89972 017.9358 221.7972 7924042 318.8502 079.0628 00.51043722    01

# Worst residual: 3.37 km
# MJD 60535.000000 (2024 Aug 13  0:00)
ZTF0EWD = C1A3AQ1 = 67040 obj
1 89972U 00000ABB 24226.49919926  .00000000  00000-0  00000-0 0 21826
2 89972 017.9421 221.7508 7924093 318.9164 262.8190 00.51052314    01

# Worst residual: 2.73 km
# MJD 60536.000000 (2024 Aug 14  0:00)
ZTF0EWD = C1A3AQ1 = 67040 obj
1 89972U 00000ABB 24227.49919926  .00000000  00000-0  00000-0 0 21827
2 89972 017.9534 221.6910 7922890 319.0048 086.5689 00.51052472    07

# Worst residual: 4.97 km
# MJD 60537.000000 (2024 Aug 15  0:00)
ZTF0EWD = C1A3AQ1 = 67040 obj
1 89972U 00000ABB 24228.49919926  .00000000  00000-0  00000-0 0 21828
2 89972 017.9496 221.6713 7921931 319.0511 270.3019 00.51052897    06

# Worst residual: 6.06 km
# MJD 60538.000000 (2024 Aug 16  0:00)
ZTF0EWD = C1A3AQ1 = 67040 obj
1 89972U 00000ABB 24229.49919926  .00000000  00000-0  00000-0 0 21829
2 89972 017.9571 221.6057 7920746 319.1362 094.0639 00.51060364    06

# Worst residual: 4.76 km
# MJD 60539.000000 (2024 Aug 17  0:00)
ZTF0EWD = C1A3AQ1 = 67040 obj
1 89972U 00000ABB 24230.49919926  .00000000  00000-0  00000-0 0 21821
2 89972 017.9458 221.6039 7919339 319.1616 277.8223 00.51052776    06

# Worst residual: 8.25 km
# MJD 60540.000000 (2024 Aug 18  0:00)
ZTF0EWD = C1A3AQ1 = 67040 obj
1 89972U 00000ABB 24231.49919926  .00000000  00000-0  00000-0 0 21822
2 89972 017.9523 221.5164 7919167 319.2641 101.5761 00.51055884    08

# Worst residual: 6.41 km
# MJD 60541.000000 (2024 Aug 19  0:00)
ZTF0EWD = C1A3AQ1 = 67040 obj
1 89972U 00000ABB 24232.49919926  .00000000  00000-0  00000-0 0 21823
2 89972 017.9633 221.4501 7920031 319.3485 285.3566 00.51053175    08
